NORAD_CAT_ID,OBJECT_NAME,OBJECT_TYPE,EPOCH,MEAN_MOTION,ECCENTRICITY,INCLINATION,RA_OF_ASC_NODE,ARG_OF_PERICENTER,MEAN_ANOMALY,BSTAR,MEAN_MOTION_DOT,MEAN_MOTION_DDOT,TLE_LINE0,TLE_LINE1,TLE_LINE2,SEMIMAJOR_AXIS,PERIOD,APOGEE,PERIGEE,DECAYED
55421.0,STARLINK-5598,PAYLOAD,2024-01-09 03:00:31,14.98323269,0.0002447,70.0004,277.7377,253.5033,106.5857,-2.7691e-05,-4.23e-06,0.0,0 STARLINK-5598,1 55421U 23014AG  24009.12536145 -.00000423  00000-0 -27691-4 0  9999,2 55421  70.0004 277.7377 0002447 253.5033 106.5857 14.98323269 53140,6950.214,96.107,573.779,570.378,0.0
55421.0,STARLINK-5598,PAYLOAD,2024-01-09 19:01:51,14.98333008,0.0002562,69.9996,276.0527,261.1754,98.9115,6.8122e-06,-1.2e-07,0.0,0 STARLINK-5598,1 55421U 23014AG  24009.79295424 -.00000012  00000-0  68122-5 0  9992,2 55421  69.9996 276.0527 0002562 261.1754  98.9115 14.98333008 53243,6950.184,96.107,573.829,570.268,0.0
55421.0,STARLINK-5598,PAYLOAD,2024-01-09 22:14:07,14.98333119,0.0002561,69.9996,275.7161,261.1382,98.9487,9.2117e-06,1.7e-07,0.0,0 STARLINK-5598,1 55421U 23014AG  24009.92647386  .00000017  00000-0  92117-5 0  9990,2 55421  69.9996 275.7161 0002561 261.1382  98.9487 14.98333119 53266,6950.183,96.107,573.828,570.268,0.0
55421.0,STARLINK-5598,PAYLOAD,2024-01-10 03:02:31,14.98333316,0.00026,69.9994,275.2099,264.8261,95.2601,5.2339e-05,5.32e-06,0.0,0 STARLINK-5598,1 55421U 23014AG  24010.12675227  .00000532  00000-0  52339-4 0  9992,2 55421  69.9994 275.2099 0002600 264.8261  95.2601 14.98333316 53299,6950.183,96.107,573.855,570.241,0.0
55421.0,STARLINK-5598,PAYLOAD,2024-01-10 19:03:52,14.98327852,0.0002636,69.9995,273.529,264.7198,95.3661,4.0383e-05,3.89e-06,0.0,0 STARLINK-5598,1 55421U 23014AG  24010.79435581  .00000389  00000-0  40383-4 0  9998,2 55421  69.9995 273.5290 0002636 264.7198  95.3661 14.98327852 53397,6950.2,96.107,573.897,570.232,0.0
55421.0,STARLINK-5598,PAYLOAD,2024-01-11 03:04:32,14.98330054,0.0002613,69.9996,272.6874,264.2241,95.862,6.0945e-05,6.34e-06,0.0,0 STARLINK-5598,1 55421U 23014AG  24011.12815395  .00000634  00000-0  60945-4 0  9990,2 55421  69.9996 272.6874 0002613 264.2241  95.8620 14.98330054 53449,6950.193,96.107,573.874,570.242,0.0
55421.0,STARLINK-5598,PAYLOAD,2024-01-11 19:05:53,14.98331323,0.0002539,69.9996,271.0033,263.6209,96.4661,-1.9306e-05,-3.23e-06,0.0,0 STARLINK-5598,1 55421U 23014AG  24011.79575476 -.00000323  00000-0 -19306-4 0  9998,2 55421  69.9996 271.0033 0002539 263.6209  96.4661 14.98331323 53546,6950.189,96.107,573.818,570.289,0.0
55421.0,STARLINK-5598,PAYLOAD,2024-01-11 22:18:09,14.98331122,0.0002544,69.9996,270.6666,263.5621,96.5249,-2.0554e-05,-3.38e-06,0.0,0 STARLINK-5598,1 55421U 23014AG  24011.92927475 -.00000338  00000-0 -20554-4 0  9996,2 55421  69.9996 270.6666 0002544 263.5621  96.5249 14.98331122 53568,6950.189,96.107,573.823,570.286,0.0
55421.0,STARLINK-5598,PAYLOAD,2024-01-12 03:06:33,14.98334581,0.0002587,69.9995,270.1617,266.241,93.8454,7.5261e-06,-3e-08,0.0,0 STARLINK-5598,1 55421U 23014AG  24012.12955149 -.00000003  00000-0  75261-5 0  9992,2 55421  69.9995 270.1617 0002587 266.2410  93.8454 14.98334581 53594,6950.179,96.107,573.842,570.246,0.0
55421.0,STARLINK-5598,PAYLOAD,2024-01-12 19:07:54,14.98305963,0.0002239,69.9998,268.4782,261.7042,98.3863,0.00032722,3.811e-05,0.0,0 STARLINK-5598,1 55421U 23014AG  24012.79715863  .00003811  00000-0  32722-3 0  9994,2 55421  69.9998 268.4782 0002239 261.7042  98.3863 14.98305963 53692,6950.267,96.109,573.688,570.576,0.0
55421.0,STARLINK-5598,PAYLOAD,2024-01-12 22:20:10,14.98302315,0.0002302,69.9997,268.1416,262.8508,97.2389,0.00037695,4.404e-05,0.0,0 STARLINK-5598,1 55421U 23014AG  24012.93068113  .00004404  00000-0  37695-3 0  9992,2 55421  69.9997 268.1416 0002302 262.8508  97.2389 14.98302315 53714,6950.279,96.109,573.743,570.544,0.0
55421.0,STARLINK-5598,PAYLOAD,2024-01-13 03:08:34,14.9832767,0.0002435,69.9999,267.637,263.4219,96.6663,-1.8826e-05,-3.18e-06,0.0,0 STARLINK-5598,1 55421U 23014AG  24013.13095684 -.00000318  00000-0 -18826-4 0  9996,2 55421  69.9999 267.6370 0002435 263.4219  96.6663 14.98327670 53744,6950.2,96.107,573.757,570.373,0.0
55421.0,STARLINK-5598,PAYLOAD,2024-01-14 03:10:35,14.98331827,0.000256,69.9995,265.1118,258.6217,101.4655,1.929e-05,1.37e-06,0.0,0 STARLINK-5598,1 55421U 23014AG  24014.13235246  .00000137  00000-0  19290-4 0  9990,2 55421  69.9995 265.1118 0002560 258.6217 101.4655 14.98331827 53897,6950.187,96.107,573.831,570.273,0.0
55421.0,STARLINK-5598,PAYLOAD,2024-01-14 22:24:12,14.98328854,0.0002507,69.9995,263.0919,253.7193,106.3691,4.3439e-05,4.25e-06,0.0,0 STARLINK-5598,1 55421U 23014AG  24014.93347327  .00000425  00000-0  43439-4 0  9994,2 55421  69.9995 263.0919 0002507 253.7193 106.3691 14.98328854 54018,6950.196,96.107,573.804,570.319,0.0
55421.0,STARLINK-5598,PAYLOAD,2024-01-15 03:12:36,14.98329919,0.0002485,69.9996,262.5871,254.6096,105.4788,5.2822e-05,5.37e-06,0.0,0 STARLINK-5598,1 55421U 23014AG  24015.13375233  .00000537  00000-0  52822-4 0  9994,2 55421  69.9996 262.5871 0002485 254.6096 105.4788 14.98329919 54040,6950.193,96.107,573.785,570.331,0.0
55421.0,STARLINK-5598,PAYLOAD,2024-01-15 20:50:04,14.98331212,0.0002472,69.9995,260.7355,253.4183,106.6704,3.6299e-06,-5e-07,0.0,0 STARLINK-5598,1 55421U 23014AG  24015.86811191 -.00000050  00000-0  36299-5 0  9994,2 55421  69.9995 260.7355 0002472 253.4183 106.6704 14.98331212 54158,6950.189,96.107,573.772,570.336,0.0
55421.0,STARLINK-5598,PAYLOAD,2024-01-16 01:38:29,14.98328356,0.0002541,69.9993,260.2301,257.5561,102.5314,-3.6393e-05,-5.27e-06,0.0,0 STARLINK-5598,1 55421U 23014AG  24016.06839493 -.00000527  00000-0 -36393-4 0  9996,2 55421  69.9993 260.2301 0002541 257.5561 102.5314 14.98328356 54184,6950.198,96.107,573.829,570.297,0.0
55421.0,STARLINK-5598,PAYLOAD,2024-01-16 19:15:58,14.98327782,0.0002697,69.9987,258.3772,265.0107,95.0744,-6.1374e-05,-8.25e-06,0.0,0 STARLINK-5598,1 55421U 23014AG  24016.80275625 -.00000825  00000-0 -61374-4 0  9997,2 55421  69.9987 258.3772 0002697 265.0107  95.0744 14.98327782 54296,6950.2,96.107,573.939,570.19,0.0
55421.0,STARLINK-5598,PAYLOAD,2024-01-16 22:28:14,14.98327179,0.0002708,69.9987,258.0406,265.1996,94.8854,-6.5645e-05,-8.76e-06,0.0,0 STARLINK-5598,1 55421U 23014AG  24016.93627691 -.00000876  00000-0 -65645-4 0  9996,2 55421  69.9987 258.0406 0002708 265.1996  94.8854 14.98327179 54319,6950.202,96.107,573.949,570.185,0.0
55421.0,STARLINK-5598,PAYLOAD,2024-01-17 01:40:30,14.98329815,0.0002689,69.9987,257.7039,265.36,94.7252,-3.303e-05,-4.87e-06,0.0,0 STARLINK-5598,1 55421U 23014AG  24017.06979435 -.00000487  00000-0 -33030-4 0  9998,2 55421  69.9987 257.7039 0002689 265.3600  94.7252 14.98329815 54331,6950.193,96.107,573.927,570.19,0.0
55421.0,STARLINK-5598,PAYLOAD,2024-01-17 19:17:59,14.98327552,0.0002709,69.9986,255.852,266.0422,94.0427,-1.587e-05,-2.82e-06,0.0,0 STARLINK-5598,1 55421U 23014AG  24017.80415577 -.00000282  00000-0 -15870-4 0  9997,2 55421  69.9986 255.8520 0002709 266.0422  94.0427 14.98327552 54442,6950.2,96.107,573.948,570.183,0.0
55421.0,STARLINK-5598,PAYLOAD,2024-01-17 22:30:15,14.98327654,0.0002705,69.9987,255.5155,266.3028,93.7822,-1.2638e-05,-2.44e-06,0.0,0 STARLINK-5598,1 55421U 23014AG  24017.93767585 -.00000244  00000-0 -12638-4 0  9997,2 55421  69.9987 255.5155 0002705 266.3028  93.7822 14.98327654 54465,6950.2,96.107,573.945,570.185,0.0
55421.0,STARLINK-5598,PAYLOAD,2024-01-18 01:42:31,14.98328109,0.0002721,69.9987,255.1792,266.7499,93.3348,-9.0703e-06,-2.01e-06,0.0,0 STARLINK-5598,1 55421U 23014AG  24018.07119567 -.00000201  00000-0 -90703-5 0  9997,2 55421  69.9987 255.1792 0002721 266.7499  93.3348 14.98328109 54489,6950.199,96.107,573.955,570.173,0.0
55421.0,STARLINK-5598,PAYLOAD,2024-01-18 19:19:59,14.98332055,0.0002826,69.9985,253.3281,266.5545,93.5291,4.3885e-05,4.31e-06,0.0,0 STARLINK-5598,1 55421U 23014AG  24018.80555167  .00000431  00000-0  43885-4 0  9999,2 55421  69.9985 253.3281 0002826 266.5545  93.5291 14.98332055 54592,6950.187,96.107,574.016,570.087,0.0
55421.0,STARLINK-5598,PAYLOAD,2024-01-18 22:32:15,14.98332441,0.0002816,69.9983,252.9911,266.3012,93.7825,4.8795e-05,4.89e-06,0.0,0 STARLINK-5598,1 55421U 23014AG  24018.93907108  .00000489  00000-0  48795-4 0  9997,2 55421  69.9983 252.9911 0002816 266.3012  93.7825 14.98332441 54618,6950.185,96.107,574.008,570.093,0.0
55421.0,STARLINK-5598,PAYLOAD,2024-01-19 01:44:31,14.9833448,0.0002804,69.9984,252.6549,265.885,94.1988,6.9251e-05,7.33e-06,0.0,0 STARLINK-5598,1 55421U 23014AG  24019.07258888  .00000733  00000-0  69251-4 0  9999,2 55421  69.9984 252.6549 0002804 265.8850  94.1988 14.98334480 54636,6950.179,96.107,573.993,570.095,0.0
55421.0,STARLINK-5598,PAYLOAD,2024-01-19 19:22:00,14.98329231,0.0002821,69.9983,250.8039,262.137,97.9468,-7.1726e-07,-1.02e-06,0.0,0 STARLINK-5598,1 55421U 23014AG  24019.80695283 -.00000102  00000-0 -71726-6 0  9998,2 55421  69.9983 250.8039 0002821 262.1370  97.9468 14.98329231 54749,6950.195,96.107,574.021,570.1,0.0
55421.0,STARLINK-5598,PAYLOAD,2024-01-19 22:34:16,14.98327637,0.0002852,69.9982,250.4673,261.5189,98.5646,-2.1262e-05,-3.47e-06,0.0,0 STARLINK-5598,1 55421U 23014AG  24019.94047439 -.00000347  00000-0 -21262-4 0  9996,2 55421  69.9982 250.4673 0002852 261.5189  98.5646 14.98327637 54768,6950.2,96.107,574.047,570.083,0.0
55421.0,STARLINK-5598,PAYLOAD,2024-01-20 01:46:33,14.98326792,0.0002865,69.9981,250.1304,262.3773,97.706,-3.172e-05,-4.71e-06,0.0,0 STARLINK-5598,1 55421U 23014AG  24020.07399543 -.00000471  00000-0 -31720-4 0  9996,2 55421  69.9981 250.1304 0002865 262.3773  97.7060 14.98326792 54781,6950.203,96.107,574.059,570.077,0.0
55421.0,STARLINK-5598,PAYLOAD,2024-01-20 19:24:01,14.98329188,0.0002853,69.998,248.2787,259.7819,100.3018,-7.0308e-05,-9.32e-06,0.0,0 STARLINK-5598,1 55421U 23014AG  24020.80835566 -.00000932  00000-0 -70308-4 0  9994,2 55421  69.9980 248.2787 0002853 259.7819 100.3018 14.98329188 54899,6950.195,96.107,574.043,570.078,0.0
